{
  "type": "FeatureCollection",
  "features": [
    {
      "type": "Feature",
      "properties": {
        "norad_id": 34589,
        "name": "COSMOS 2251 DEB",
        "group": "cosmos-2251-debris",
        "lat": -40.190197285605585,
        "lon": 34.17855835118346,
        "alt_km": 792.2160582174292,
        "timestamp": "2025-12-17T07:00:47.304144+00:00",
        "meta_object_name": "COSMOS 2251 DEB",
        "meta_object_id": "1993-036WB",
        "meta_epoch": "2025-12-15T21:07:13.255392",
        "meta_mean_motion": 13.86055381,
        "meta_eccentricity": 0.02519969,
        "meta_inclination": 73.9257,
        "meta_ra_of_asc_node": 50.6812,
        "meta_arg_of_pericenter": 353.4006,
        "meta_mean_anomaly": 122.126,
        "meta_ephemeris_type": 0,
        "meta_classification_type": "U",
        "meta_norad_cat_id": 34589,
        "meta_element_set_no": 999,
        "meta_rev_at_epoch": 84755,
        "meta_bstar": 0.00028237935,
        "meta_mean_motion_dot": 3.93e-06,
        "meta_mean_motion_ddot": 0,
        "tle_line1": "1 34589U 93036WB  25349.88001453  .00000393  00000+0  28238-3 0  9992",
        "tle_line2": "2 34589  73.9257  50.6812 0251996 353.4006 122.1260 13.86055381847552"
      },
      "geometry": {
        "type": "Point",
        "coordinates": [
          34.17855835118346,
          -40.190197285605585
        ]
      }
    },
    {
      "type": "Feature",
      "properties": {
        "norad_id": 34590,
        "name": "COSMOS 2251 DEB",
        "group": "cosmos-2251-debris",
        "lat": -10.462727384305426,
        "lon": -49.089337113474265,
        "alt_km": 715.999647600418,
        "timestamp": "2025-12-17T07:00:47.304155+00:00",
        "meta_object_name": "COSMOS 2251 DEB",
        "meta_object_id": "1993-036WC",
        "meta_epoch": "2025-12-16T08:38:38.666400",
        "meta_mean_motion": 14.54830103,
        "meta_eccentricity": 0.00679681,
        "meta_inclination": 74.044,
        "meta_ra_of_asc_node": 315.7016,
        "meta_arg_of_pericenter": 84.2273,
        "meta_mean_anomaly": 66.298,
        "meta_ephemeris_type": 0,
        "meta_classification_type": "U",
        "meta_norad_cat_id": 34590,
        "meta_element_set_no": 999,
        "meta_rev_at_epoch": 89173,
        "meta_bstar": 0.0001292882,
        "meta_mean_motion_dot": 5.42e-06,
        "meta_mean_motion_ddot": 0,
        "tle_line1": "1 34590U 93036WC  25350.36016975  .00000542  00000+0  12929-3 0  9990",
        "tle_line2": "2 34590  74.0440 315.7016 0067968  84.2273  66.2980 14.54830103891735"
      },
      "geometry": {
        "type": "Point",
        "coordinates": [
          -49.089337113474265,
          -10.462727384305426
        ]
      }
    },
    {
      "type": "Feature",
      "properties": {
        "norad_id": 34609,
        "name": "COSMOS 2251 DEB",
        "group": "cosmos-2251-debris",
        "lat": -57.78676521142179,
        "lon": 70.79422330664887,
        "alt_km": 726.8447204293079,
        "timestamp": "2025-12-17T07:00:47.304165+00:00",
        "meta_object_name": "COSMOS 2251 DEB",
        "meta_object_id": "1993-036WE",
        "meta_epoch": "2025-12-16T14:28:51.926592",
        "meta_mean_motion": 14.2180807,
        "meta_eccentricity": 0.01453345,
        "meta_inclination": 73.7332,
        "meta_ra_of_asc_node": 99.6604,
        "meta_arg_of_pericenter": 318.5468,
        "meta_mean_anomaly": 55.7915,
        "meta_ephemeris_type": 0,
        "meta_classification_type": "U",
        "meta_norad_cat_id": 34609,
        "meta_element_set_no": 999,
        "meta_rev_at_epoch": 86687,
        "meta_bstar": 0.00052723135,
        "meta_mean_motion_dot": 1.264e-05,
        "meta_mean_motion_ddot": 0,
        "tle_line1": "1 34609U 93036WE  25350.60337878  .00001264  00000+0  52723-3 0  9994",
        "tle_line2": "2 34609  73.7332  99.6604 0145334 318.5468  55.7915 14.21808070866876"
      },
      "geometry": {
        "type": "Point",
        "coordinates": [
          70.79422330664887,
          -57.78676521142179
        ]
      }
    },
    {
      "type": "Feature",
      "properties": {
        "norad_id": 34610,
        "name": "COSMOS 2251 DEB",
        "group": "cosmos-2251-debris",
        "lat": -40.39741203454035,
        "lon": 88.45135360778595,
        "alt_km": 999.4466581711604,
        "timestamp": "2025-12-17T07:00:47.304176+00:00",
        "meta_object_name": "COSMOS 2251 DEB",
        "meta_object_id": "1993-036WF",
        "meta_epoch": "2025-12-16T19:43:22.866816",
        "meta_mean_motion": 14.07083274,
        "meta_eccentricity": 0.01805005,
        "meta_inclination": 74.0182,
        "meta_ra_of_asc_node": 255.1605,
        "meta_arg_of_pericenter": 24.866,
        "meta_mean_anomaly": 336.104,
        "meta_ephemeris_type": 0,
        "meta_classification_type": "U",
        "meta_norad_cat_id": 34610,
        "meta_element_set_no": 999,
        "meta_rev_at_epoch": 85617,
        "meta_bstar": 0.0012903668,
        "meta_mean_motion_dot": 2.479e-05,
        "meta_mean_motion_ddot": 0,
        "tle_line1": "1 34610U 93036WF  25350.82179244  .00002479  00000+0  12904-2 0  9996",
        "tle_line2": "2 34610  74.0182 255.1605 0180500  24.8660 336.1040 14.07083274856172"
      },
      "geometry": {
        "type": "Point",
        "coordinates": [
          88.45135360778595,
          -40.39741203454035
        ]
      }
    },
    {
      "type": "Feature",
      "properties": {
        "norad_id": 34611,
        "name": "COSMOS 2251 DEB",
        "group": "cosmos-2251-debris",
        "lat": -39.224386038074385,
        "lon": -74.3474799615069,
        "alt_km": 668.1612437213216,
        "timestamp": "2025-12-17T07:00:47.304186+00:00",
        "meta_object_name": "COSMOS 2251 DEB",
        "meta_object_id": "1993-036WG",
        "meta_epoch": "2025-12-16T17:29:33.769248",
        "meta_mean_motion": 14.69582283,
        "meta_eccentricity": 0.00222724,
        "meta_inclination": 74.0534,
        "meta_ra_of_asc_node": 93.2451,
        "meta_arg_of_pericenter": 133.4274,
        "meta_mean_anomaly": 348.1712,
        "meta_ephemeris_type": 0,
        "meta_classification_type": "U",
        "meta_norad_cat_id": 34611,
        "meta_element_set_no": 999,
        "meta_rev_at_epoch": 88449,
        "meta_bstar": 0.0011455971,
        "meta_mean_motion_dot": 6.807e-05,
        "meta_mean_motion_ddot": 0,
        "tle_line1": "1 34611U 93036WG  25350.72886307  .00006807  00000+0  11456-2 0  9991",
        "tle_line2": "2 34611  74.0534  93.2451 0022272 133.4274 348.1712 14.69582283884490"
      },
      "geometry": {
        "type": "Point",
        "coordinates": [
          -74.3474799615069,
          -39.224386038074385
        ]
      }
    },
    {
      "type": "Feature",
      "properties": {
        "norad_id": 34613,
        "name": "COSMOS 2251 DEB",
        "group": "cosmos-2251-debris",
        "lat": -37.19596389547773,
        "lon": -102.32102674897392,
        "alt_km": 869.7502903861159,
        "timestamp": "2025-12-17T07:00:47.304196+00:00",
        "meta_object_name": "COSMOS 2251 DEB",
        "meta_object_id": "1993-036WJ",
        "meta_epoch": "2025-12-16T00:58:31.243296",
        "meta_mean_motion": 14.26454619,
        "meta_eccentricity": 0.01102473,
        "meta_inclination": 73.9638,
        "meta_ra_of_asc_node": 272.5587,
        "meta_arg_of_pericenter": 103.5153,
        "meta_mean_anomaly": 273.8209,
        "meta_ephemeris_type": 0,
        "meta_classification_type": "U",
        "meta_norad_cat_id": 34613,
        "meta_element_set_no": 999,
        "meta_rev_at_epoch": 86510,
        "meta_bstar": 0.00095440148,
        "meta_mean_motion_dot": 2.425e-05,
        "meta_mean_motion_ddot": 0,
        "tle_line1": "1 34613U 93036WJ  25350.04063939  .00002425  00000+0  95440-3 0  9994",
        "tle_line2": "2 34613  73.9638 272.5587 0110247 103.5153 273.8209 14.26454619865107"
      },
      "geometry": {
        "type": "Point",
        "coordinates": [
          -102.32102674897392,
          -37.19596389547773
        ]
      }
    },
    {
      "type": "Feature",
      "properties": {
        "norad_id": 34614,
        "name": "COSMOS 2251 DEB",
        "group": "cosmos-2251-debris",
        "lat": 73.61001065107205,
        "lon": 76.27515300780597,
        "alt_km": 904.1634917976462,
        "timestamp": "2025-12-17T07:00:47.304207+00:00",
        "meta_object_name": "COSMOS 2251 DEB",
        "meta_object_id": "1993-036WK",
        "meta_epoch": "2025-12-16T00:21:28.707840",
        "meta_mean_motion": 14.17601251,
        "meta_eccentricity": 0.0198196,
        "meta_inclination": 73.8837,
        "meta_ra_of_asc_node": 337.994,
        "meta_arg_of_pericenter": 331.3985,
        "meta_mean_anomaly": 83.6306,
        "meta_ephemeris_type": 0,
        "meta_classification_type": "U",
        "meta_norad_cat_id": 34614,
        "meta_element_set_no": 999,
        "meta_rev_at_epoch": 84813,
        "meta_bstar": 0.0047337499,
        "meta_mean_motion_dot": 0.00011666,
        "meta_mean_motion_ddot": 0,
        "tle_line1": "1 34614U 93036WK  25350.01491560  .00011666  00000+0  47337-2 0  9995",
        "tle_line2": "2 34614  73.8837 337.9940 0198196 331.3985  83.6306 14.17601251848135"
      },
      "geometry": {
        "type": "Point",
        "coordinates": [
          76.27515300780597,
          73.61001065107205
        ]
      }
    }
  ]
}